[
    {
        "Altitude(m)": 611967.1949809216,
        "Argument of Periapsis(deg)": 0.0,
        "Eccentricity": 0.0,
        "Inclination(deg)": 60.0,
        "Latitude(deg)": 59.14021022419198,
        "Longitude(deg)": 156.09222019884538,
        "Mean Anomaly(deg)": 98.18180000000002,
        "RAAN(deg)": 150.0,
        "Satellite Name": "Test1 666",
        "Satellite Number": 666,
        "Semi-Major Axis(m)": 6980739.136638005,
        "Time(s)": 0
    },
    {
        "Altitude(m)": 611934.3942548159,
        "Argument of Periapsis(deg)": 0.00010418945913296404,
        "Eccentricity": 0.0,
        "Inclination(deg)": 60.0,
        "Latitude(deg)": 58.98657049099145,
        "Longitude(deg)": 157.21546649539016,
        "Mean Anomaly(deg)": 98.80190614546183,
        "RAAN(deg)": 149.99957995086027,
        "Satellite Name": "Test1 666",
        "Satellite Number": 666,
        "Semi-Major Axis(m)": 6980739.136638005,
        "Time(s)": 10
    }
]